OBJECT_NAME,OBJECT_ID,EPOCH,MEAN_MOTION,ECCENTRICITY,INCLINATION,RA_OF_ASC_NODE,ARG_OF_PERICENTER,MEAN_ANOMALY,EPHEMERIS_TYPE,CLASSIFICATION_TYPE,NORAD_CAT_ID,ELEMENT_SET_NO,REV_AT_EPOCH,BSTAR,MEAN_MOTION_DOT,MEAN_MOTION_DDOT
STARLINK-5708,2023-015X,2026-07-23T06:02:40.202016,15.27572946,.00011506,43.0019,283.2122,274.3081,85.7639,0,U,55470,999,19145,-.28242312E-4,-.1039E-4,0
STARLINK-5711,2023-015Y,2026-07-23T07:03:31.118688,15.27571444,.0001513,43.0032,282.6654,268.1145,91.9534,0,U,55471,999,19146,.39727841E-4,.831E-5,0
STARLINK-5705,2023-015Z,2026-07-23T06:05:53.254176,15.27586655,.00014201,43.0042,276.1970,282.6318,77.4375,0,U,55472,999,19153,-.16121938E-4,-.706E-5,0
STARLINK-5689,2023-015AB,2026-07-23T07:34:57.566784,15.27573713,.0002041,43.0044,294.1220,272.3112,87.7506,0,U,55474,999,19133,.7660476E-5,-.52E-6,0
STARLINK-5650,2023-015AC,2026-07-23T04:39:38.983680,15.27521835,.00012882,43.0042,283.6333,228.1134,131.9608,0,U,55475,999,19144,-.2631346E-5,-.334E-5,0
STARLINK-5685,2023-015AE,2026-07-22T11:47:15.235584,15.27577144,.00012832,43.0014,279.9318,265.2117,94.8589,0,U,55477,999,19142,.29690472E-4,.555E-5,0
STARLINK-5691,2023-015AF,2026-07-23T04:04:40.826208,15.27576456,.00014882,43.0035,273.0056,278.6650,81.4033,0,U,55478,999,19156,.2739862E-5,-.187E-5,0
STARLINK-5688,2023-015AG,2026-07-22T21:54:44.792352,15.27582331,.00011636,43.0033,277.9354,288.5218,71.5507,0,U,55479,999,19148,.65177735E-4,.1532E-4,0
STARLINK-5690,2023-015AH,2026-07-23T06:46:49.642464,15.27574321,.00013981,43.0030,293.7947,269.9857,90.0835,0,U,55480,999,19133,-.6063135E-5,-.429E-5,0
STARLINK-5694,2023-015AJ,2026-07-23T05:38:35.938752,15.27579259,.00013271,43.0030,294.3831,285.5072,74.5633,0,U,55481,999,19132,-.26762928E-4,-.998E-5,0
STARLINK-5692,2023-015AL,2026-07-23T06:41:17.861280,15.27573989,.00012666,43.0033,293.8490,270.7199,89.3507,0,U,55483,999,19133,-.10945657E-4,-.563E-5,0
STARLINK-5696,2023-015AM,2026-07-22T23:36:46.253952,15.27573750,.00017763,43.0044,295.9301,282.0112,78.0541,0,U,55484,999,19128,.3888996E-5,-.155E-5,0
STARLINK-5695,2023-015AN,2026-07-23T07:23:51.218016,15.27575227,.00020794,43.0047,294.0661,287.3956,72.6668,0,U,55485,999,19133,-.1615204E-5,-.307E-5,0
STARLINK-5704,2023-015AP,2026-07-23T07:18:19.019520,15.27558286,.00018188,43.0044,293.9895,287.1390,72.9262,0,U,55486,999,19133,-.72266491E-4,-.2249E-4,0
STARLINK-5701,2023-015AQ,2026-07-23T05:27:31.314528,15.27558613,.00010085,43.0023,294.3227,271.8709,88.2027,0,U,55487,999,19132,-.77065512E-4,-.2381E-4,0
STARLINK-5706,2023-015AR,2026-07-23T06:57:57.060000,15.27571048,.00015953,43.0047,293.9265,269.1286,90.9383,0,U,55488,999,19133,.6364456E-5,-.87E-6,0
STARLINK-5371,2023-015AS,2026-07-23T07:07:09.516288,15.27608708,.00025327,43.0003,293.9772,154.0050,206.0929,0,U,55489,999,19133,.14817593E-3,.3821E-4,0
STARLINK-5373,2023-015AT,2026-07-23T06:30:12.096576,15.27582799,.00012568,43.0023,293.7787,254.0496,106.0217,0,U,55490,999,19133,.24072855E-4,.4E-5,0
STARLINK-5364,2023-015AU,2026-07-23T05:25:12.442944,15.27565819,.00011344,42.9999,275.9694,266.8557,93.2165,0,U,55491,999,19153,-.26696006E-4,-.996E-5,0
STARLINK-5013,2023-015AV,2026-07-23T07:05:21.040224,15.27571792,.00012929,43.0035,293.9551,280.5935,79.4771,0,U,55492,999,19133,-.18469401E-4,-.77E-5,0
STARLINK-5362,2023-015AW,2026-07-23T06:37:35.917824,15.27575358,.00015118,43.0047,293.8255,277.2867,82.7813,0,U,55493,999,19133,-.10282436E-4,-.545E-5,0
STARLINK-5344,2023-015AX,2026-07-23T07:09:05.599008,15.27548612,.00015963,43.0062,293.9867,285.2977,74.7698,0,U,55494,999,19133,-.18186222E-3,-.5258E-4,0
STARLINK-5100,2023-015AY,2026-07-23T05:34:26.201280,15.27585263,.00014688,43.0039,276.0361,262.5388,97.5296,0,U,55495,999,19153,.6842416E-4,.1621E-4,0
STARLINK-5363,2023-015BA,2026-07-23T07:14:36.094560,15.27572911,.00016419,43.0055,294.0080,277.4721,82.5944,0,U,55497,999,19133,-.5641817E-5,-.418E-5,0
STARLINK-5365,2023-015BB,2026-07-23T07:29:24.053280,15.27576367,.00021504,43.0044,294.0825,279.4386,80.6223,0,U,55498,999,19133,.9045044E-5,-.14E-6,0
STARLINK-5366,2023-015BC,2026-07-23T06:22:47.768160,15.27562863,.00016891,43.0035,293.7408,289.1800,70.8868,0,U,55499,999,19208,.3493726E-4,.699E-5,0
STARLINK-5141,2023-015BD,2026-07-23T05:45:59.527584,15.27577793,.00018915,43.0038,294.4082,288.4964,71.5682,0,U,55500,999,19132,.37787083E-4,.777E-5,0
STARLINK-5367,2023-015BE,2026-07-23T06:06:20.769984,15.27575061,.00013949,43.0019,294.4971,249.4570,110.6132,0,U,55501,999,19132,.8351562E-5,-.32E-6,0
ELEKTRO-L 4,2023-016A,2026-07-22T16:55:06.184416,1.00271017,.00016563,0.1025,279.4018,260.1188,180.4676,0,U,55506,999,1269,0,-.55E-6,0
AMAZONAS NEXUS,2023-017A,2026-07-23T05:00:45.470304,1.00270243,.00045189,0.0344,44.8792,46.6263,223.6232,0,U,55508,999,740,0,-.278E-5,0
