STARLINK-5708           
1 55470U 23015X   26204.25185419 -.00001039  00000+0 -28242-4 0  9997
2 55470  43.0019 283.2122 0001150 274.3081  85.7639 15.27572946191458
STARLINK-5711           
1 55471U 23015Y   26204.29411017  .00000831  00000+0  39728-4 0  9996
2 55471  43.0032 282.6654 0001513 268.1145  91.9534 15.27571444191468
STARLINK-5705           
1 55472U 23015Z   26204.25408859 -.00000706  00000+0 -16122-4 0  9999
2 55472  43.0042 276.1970 0001420 282.6318  77.4375 15.27586655191539
STARLINK-5689           
1 55474U 23015AB  26204.31594406 -.00000052  00000+0  76605-5 0  9998
2 55474  43.0044 294.1220 0002041 272.3112  87.7506 15.27573713191338
STARLINK-5650           
1 55475U 23015AC  26204.19420120 -.00000334  00000+0 -26313-5 0  9991
2 55475  43.0042 283.6333 0001288 228.1134 131.9608 15.27521835191445
STARLINK-5685           
1 55477U 23015AE  26203.49114856  .00000555  00000+0  29690-4 0  9994
2 55477  43.0014 279.9318 0001283 265.2117  94.8589 15.27577144191422
STARLINK-5691           
1 55478U 23015AF  26204.16991697 -.00000187  00000+0  27399-5 0  9993
2 55478  43.0035 273.0056 0001488 278.6650  81.4033 15.27576456191563
STARLINK-5688           
1 55479U 23015AG  26203.91301843  .00001532  00000+0  65178-4 0  9994
2 55479  43.0033 277.9354 0001163 288.5218  71.5507 15.27582331191482
STARLINK-5690           
1 55480U 23015AH  26204.28251901 -.00000429  00000+0 -60631-5 0  9992
2 55480  43.0030 293.7947 0001398 269.9857  90.0835 15.27574321191331
STARLINK-5694           
1 55481U 23015AJ  26204.23513818 -.00000998  00000+0 -26763-4 0  9994
2 55481  43.0030 294.3831 0001327 285.5072  74.5633 15.27579259191323
STARLINK-5692           
1 55483U 23015AL  26204.27867895 -.00000563  00000+0 -10946-4 0  9991
2 55483  43.0033 293.8490 0001266 270.7199  89.3507 15.27573989191330
STARLINK-5696           
1 55484U 23015AM  26203.98386868 -.00000155  00000+0  38890-5 0  9990
2 55484  43.0044 295.9301 0001776 282.0112  78.0541 15.27573750191287
STARLINK-5695           
1 55485U 23015AN  26204.30823169 -.00000307  00000+0 -16152-5 0  9995
2 55485  43.0047 294.0661 0002079 287.3956  72.6668 15.27575227191338
STARLINK-5704           
1 55486U 23015AP  26204.30438680 -.00002249  00000+0 -72266-4 0  9990
2 55486  43.0044 293.9895 0001818 287.1390  72.9262 15.27558286191332
STARLINK-5701           
1 55487U 23015AQ  26204.22744577 -.00002381  00000+0 -77066-4 0  9997
2 55487  43.0023 294.3227 0001008 271.8709  88.2027 15.27558613191321
STARLINK-5706           
1 55488U 23015AR  26204.29024375 -.00000087  00000+0  63645-5 0  9991
2 55488  43.0047 293.9265 0001595 269.1286  90.9383 15.27571048191339
STARLINK-5371           
1 55489U 23015AS  26204.29663792  .00003821  00000+0  14818-3 0  9998
2 55489  43.0003 293.9772 0002532 154.0050 206.0929 15.27608708191338
STARLINK-5373           
1 55490U 23015AT  26204.27097334  .00000400  00000+0  24073-4 0  9996
2 55490  43.0023 293.7787 0001256 254.0496 106.0217 15.27582799191333
STARLINK-5364           
1 55491U 23015AU  26204.22583846 -.00000996  00000+0 -26696-4 0  9995
2 55491  42.9999 275.9694 0001134 266.8557  93.2165 15.27565819191532
STARLINK-5013           
1 55492U 23015AV  26204.29538241 -.00000770  00000+0 -18469-4 0  9991
2 55492  43.0035 293.9551 0001292 280.5935  79.4771 15.27571792191330
STARLINK-5362           
1 55493U 23015AW  26204.27611016 -.00000545  00000+0 -10282-4 0  9997
2 55493  43.0047 293.8255 0001511 277.2867  82.7813 15.27575358191331
STARLINK-5344           
1 55494U 23015AX  26204.29798147 -.00005258  00000+0 -18186-3 0  9997
2 55494  43.0062 293.9867 0001596 285.2977  74.7698 15.27548612191338
STARLINK-5100           
1 55495U 23015AY  26204.23224770  .00001621  00000+0  68424-4 0  9997
2 55495  43.0039 276.0361 0001468 262.5388  97.5296 15.27585263191538
STARLINK-5363           
1 55497U 23015BA  26204.30180665 -.00000418  00000+0 -56418-5 0  9997
2 55497  43.0055 294.0080 0001641 277.4721  82.5944 15.27572911191333
STARLINK-5365           
1 55498U 23015BB  26204.31208395 -.00000014  00000+0  90450-5 0  9995
2 55498  43.0044 294.0825 0002150 279.4386  80.6223 15.27576367191332
STARLINK-5366           
1 55499U 23015BC  26204.26583065  .00000699  00000+0  34937-4 0  9995
2 55499  43.0035 293.7408 0001689 289.1800  70.8868 15.27562863192086
STARLINK-5141           
1 55500U 23015BD  26204.24027231  .00000777  00000+0  37787-4 0  9997
2 55500  43.0038 294.4082 0001891 288.4964  71.5682 15.27577793191322
STARLINK-5367           
1 55501U 23015BE  26204.25440706 -.00000032  00000+0  83516-5 0  9992
2 55501  43.0019 294.4971 0001394 249.4570 110.6132 15.27575061191328
ELEKTRO-L 4             
1 55506U 23016A   26203.70493269 -.00000055  00000+0  00000+0 0  9995
2 55506   0.1025 279.4018 0001656 260.1188 180.4676  1.00271017 12695
AMAZONAS NEXUS          
1 55508U 23017A   26204.20885961 -.00000278  00000+0  00000+0 0  9995
2 55508   0.0344  44.8792 0004518  46.6263 223.6232  1.00270243  7405
